41917,IRIDIUM 106,2017,100.4,860.0,+,86.39,Active,1,LEO,USA,USA,Commercial/Government,Communications,Falcon,1 41917U 17003A   25088.25141317  .00000024  00000+0  15567-5 0  9994,2 41917  86.3907 274.4303 0001581  88.4049 271.7328 14.34217570429434,14.3421757,0.0001581,LEO
41918,IRIDIUM 103,2017,100.4,860.0,+,86.39,Active,1,LEO,USA,USA,Commercial/Government,Communications,Falcon,1 41918U 17003B   25088.23872903  .00000015  00000+0 -17019-5 0  9990,2 41918  86.3905 274.3362 0002244  74.3950 285.7493 14.34217887429450,14.34217887,0.0002244,LEO
41919,IRIDIUM 109,2017,100.4,860.0,+,86.39,Active,1,LEO,USA,USA,Commercial/Government,Communications,Falcon,1 41919U 17003C   25088.03576474 -.00000088  00000+0 -38396-4 0  9994,2 41919  86.3909 274.4735 0002201  87.6661 272.4787 14.34217411429394,14.34217411,0.0002201,LEO
41920,IRIDIUM 102,2017,100.4,860.0,+,86.39,Active,1,LEO,USA,USA,Commercial/Government,Communications,Falcon,1 41920U 17003D   25088.35289577  .00000201  00000+0  64636-4 0  9997,2 41920  86.3906 274.2736 0002100  94.6214 265.5221 14.34218153429527,14.34218153,0.00021,LEO
41921,IRIDIUM 105,2017,100.4,860.0,+,86.39,Active,1,LEO,USA,USA,Commercial/Government,Communications,Falcon,1 41921U 17003E   25088.39337706  .00000744  00000+0  25870-3 0  9998,2 41921  86.3950 242.6739 0002097  87.7072 272.4364 14.34212634431389,14.34212634,0.0002097,LEO
41922,IRIDIUM 104,2017,100.4,860.0,+,86.39,Active,1,LEO,USA,USA,Commercial/Government,Communications,Falcon,1 41922U 17003F   25088.01674072  .00000257  00000+0  84826-4 0  9994,2 41922  86.3909 274.4504 0002531  84.2678 275.8806 14.34218019429461,14.34218019,0.0002531,LEO
41923,IRIDIUM 114,2017,100.4,860.0,+,86.39,Active,1,LEO,USA,USA,Commercial/Government,Communications,Falcon,1 41923U 17003G   25088.02308073  .00000005  00000+0 -51181-5 0  9992,2 41923  86.3909 274.4326 0002002  82.9826 277.1597 14.34217329429440,14.34217329,0.0002002,LEO
41924,IRIDIUM 108,2017,100.4,860.0,+,86.39,Active,1,LEO,USA,USA,Commercial/Government,Communications,Falcon,1 41924U 17003H   25088.40021384  .00000616  00000+0  21274-3 0  9997,2 41924  86.3937 242.5772 0001950  95.2222 264.9197 14.34217093431352,14.34217093,0.000195,LEO
